{"type": "FeatureCollection", "features": [ {"type": "Feature", "properties": {"norad_id": 35139, "name": "FENGYUN 1C DEB", "group": "fengyun-1c-debris", "lat": 19.620722958200506, "lon": -11.61154580026558, "alt_km": 813.281395650808, "timestamp": "2025-12-12T05:47:29.058570+00:00", "meta": {"OBJECT_NAME": "FENGYUN 1C DEB", "OBJECT_ID": "1999-025DLT", "EPOCH": "2025-11-29T06:46:18.583392", "MEAN_MOTION": 14.21054019, "ECCENTRICITY": 0.00685814, "INCLINATION": 98.5841, "RA_OF_ASC_NODE": 338.8823, "ARG_OF_PERICENTER": 336.9878, "MEAN_ANOMALY": 22.8231, "EPHEMERIS_TYPE": 0, "CLASSIFICATION_TYPE": "U", "NORAD_CAT_ID": 35139, "ELEMENT_SET_NO": 999, "REV_AT_EPOCH": 63962, "BSTAR": 0.00042081079, "MEAN_MOTION_DOT": 8.92e-06, "MEAN_MOTION_DDOT": 0}, "tle": {"line1": "1 35139U 99025DLT 25333.28215953  .00000892  00000+0  42081-3 0  9993", "line2": "2 35139  98.5841 338.8823 0068581 336.9878  22.8231 14.21054019639626"}}, "geometry": {"type": "Point", "coordinates": [-11.61154580026558, 19.620722958200506]}}, {"type": "Feature", "properties": {"norad_id": 35140, "name": "FENGYUN 1C DEB", "group": "fengyun-1c-debris", "lat": 69.4738105700928, "lon": 171.0185004094121, "alt_km": 973.3802335429664, "timestamp": "2025-12-12T05:47:29.058581+00:00", "meta": {"OBJECT_NAME": "FENGYUN 1C DEB", "OBJECT_ID": "1999-025DLU", "EPOCH": "2025-12-10T16:06:55.950624", "MEAN_MOTION": 14.21341225, "ECCENTRICITY": 0.02908031, "INCLINATION": 98.446, "RA_OF_ASC_NODE": 326.133, "ARG_OF_PERICENTER": 332.6918, "MEAN_ANOMALY": 25.9222, "EPHEMERIS_TYPE": 0, "CLASSIFICATION_TYPE": "U", "NORAD_CAT_ID": 35140, "ELEMENT_SET_NO": 999, "REV_AT_EPOCH": 87249, "BSTAR": 0.00040593538, "MEAN_MOTION_DOT": 1.31e-05, "MEAN_MOTION_DDOT": 0}, "tle": {"line1": "1 35140U 99025DLU 25344.67148091  .00001310  00000+0  40594-3 0  9991", "line2": "2 35140  98.4460 326.1330 0290803 332.6918  25.9222 14.21341225872495"}}, "geometry": {"type": "Point", "coordinates": [171.0185004094121, 69.4738105700928]}}, {"type": "Feature", "properties": {"norad_id": 35142, "name": "FENGYUN 1C DEB", "group": "fengyun-1c-debris", "lat": 80.03125985449282, "lon": -136.6007862027337, "alt_km": 959.5934696690992, "timestamp": "2025-12-12T05:47:29.058591+00:00", "meta": {"OBJECT_NAME": "FENGYUN 1C DEB", "OBJECT_ID": "1999-025DLW", "EPOCH": "2025-12-10T17:57:11.594304", "MEAN_MOTION": 13.90505391, "ECCENTRICITY": 0.01075768, "INCLINATION": 99.0447, "RA_OF_ASC_NODE": 336.9569, "ARG_OF_PERICENTER": 219.5001, "MEAN_ANOMALY": 324.8218, "EPHEMERIS_TYPE": 0, "CLASSIFICATION_TYPE": "U", "NORAD_CAT_ID": 35142, "ELEMENT_SET_NO": 999, "REV_AT_EPOCH": 85661, "BSTAR": 0.00028188701, "MEAN_MOTION_DOT": 3.24e-06, "MEAN_MOTION_DDOT": 0}, "tle": {"line1": "1 35142U 99025DLW 25344.74805086  .00000324  00000+0  28189-3 0  9995", "line2": "2 35142  99.0447 336.9569 0107576 219.5001 324.8218 13.90505391856615"}}, "geometry": {"type": "Point", "coordinates": [-136.6007862027337, 80.03125985449282]}}, {"type": "Feature", "properties": {"norad_id": 35144, "name": "FENGYUN 1C DEB", "group": "fengyun-1c-debris", "lat": -51.94529589082951, "lon": -89.71112703392585, "alt_km": 714.9732677336615, "timestamp": "2025-12-12T05:47:29.058602+00:00", "meta": {"OBJECT_NAME": "FENGYUN 1C DEB", "OBJECT_ID": "1999-025DLY", "EPOCH": "2025-12-11T13:54:55.730016", "MEAN_MOTION": 14.59153521, "ECCENTRICITY": 0.0026594, "INCLINATION": 98.6992, "RA_OF_ASC_NODE": 100.875, "ARG_OF_PERICENTER": 5.3698, "MEAN_ANOMALY": 354.778, "EPHEMERIS_TYPE": 0, "CLASSIFICATION_TYPE": "U", "NORAD_CAT_ID": 35144, "ELEMENT_SET_NO": 999, "REV_AT_EPOCH": 65196, "BSTAR": 0.0041915394, "MEAN_MOTION_DOT": 0.00019845, "MEAN_MOTION_DDOT": 0}, "tle": {"line1": "1 35144U 99025DLY 25345.57981169  .00019845  00000+0  41915-2 0  9995", "line2": "2 35144  98.6992 100.8750 0026594   5.3698 354.7780 14.59153521651967"}}, "geometry": {"type": "Point", "coordinates": [-89.71112703392585, -51.94529589082951]}}, {"type": "Feature", "properties": {"norad_id": 35147, "name": "FENGYUN 1C DEB", "group": "fengyun-1c-debris", "lat": 35.02415879721771, "lon": 52.719321652607704, "alt_km": 663.903589084468, "timestamp": "2025-12-12T05:47:29.058612+00:00", "meta": {"OBJECT_NAME": "FENGYUN 1C DEB", "OBJECT_ID": "1999-025DMB", "EPOCH": "2025-12-08T03:53:17.840256", "MEAN_MOTION": 14.74032065, "ECCENTRICITY": 0.00276083, "INCLINATION": 99.4865, "RA_OF_ASC_NODE": 54.6818, "ARG_OF_PERICENTER": 212.762, "MEAN_ANOMALY": 147.1872, "EPHEMERIS_TYPE": 0, "CLASSIFICATION_TYPE": "U", "NORAD_CAT_ID": 35147, "ELEMENT_SET_NO": 999, "REV_AT_EPOCH": 74237, "BSTAR": 0.0037161375, "MEAN_MOTION_DOT": 0.00024612, "MEAN_MOTION_DDOT": 0}, "tle": {"line1": "1 35147U 99025DMB 25342.16201204  .00024612  00000+0  37161-2 0  9991", "line2": "2 35147  99.4865  54.6818 0027608 212.7620 147.1872 14.74032065742373"}}, "geometry": {"type": "Point", "coordinates": [52.719321652607704, 35.02415879721771]}}, {"type": "Feature", "properties": {"norad_id": 35152, "name": "FENGYUN 1C DEB", "group": "fengyun-1c-debris", "lat": -58.14163357473686, "lon": -174.90495034663746, "alt_km": 946.8343049208552, "timestamp": "2025-12-12T05:47:29.058623+00:00", "meta": {"OBJECT_NAME": "FENGYUN 1C DEB", "OBJECT_ID": "1999-025DMG", "EPOCH": "2025-12-09T06:32:50.767584", "MEAN_MOTION": 13.76426124, "ECCENTRICITY": 0.019481, "INCLINATION": 99.8191, "RA_OF_ASC_NODE": 165.8523, "ARG_OF_PERICENTER": 24.4192, "MEAN_ANOMALY": 336.6036, "EPHEMERIS_TYPE": 0, "CLASSIFICATION_TYPE": "U", "NORAD_CAT_ID": 35152, "ELEMENT_SET_NO": 999, "REV_AT_EPOCH": 62145, "BSTAR": 0.0008876, "MEAN_MOTION_DOT": 9.5e-06, "MEAN_MOTION_DDOT": 0}, "tle": {"line1": "1 35152U 99025DMG 25343.27280981  .00000950  00000+0  88760-3 0  9990", "line2": "2 35152  99.8191 165.8523 0194810  24.4192 336.6036 13.76426124621451"}}, "geometry": {"type": "Point", "coordinates": [-174.90495034663746, -58.14163357473686]}}, {"type": "Feature", "properties": {"norad_id": 35153, "name": "FENGYUN 1C DEB", "group": "fengyun-1c-debris", "lat": -14.589250127320438, "lon": -119.66624911544127, "alt_km": 671.4274944450653, "timestamp": "2025-12-12T05:47:29.058633+00:00", "meta": {"OBJECT_NAME": "FENGYUN 1C DEB", "OBJECT_ID": "1999-025DMH", "EPOCH": "2025-12-10T22:53:53.083104", "MEAN_MOTION": 14.7371709, "ECCENTRICITY": 0.0171271, "INCLINATION": 98.902, "RA_OF_ASC_NODE": 236.5834, "ARG_OF_PERICENTER": 88.7296, "MEAN_ANOMALY": 273.3523, "EPHEMERIS_TYPE": 0, "CLASSIFICATION_TYPE": "U", "NORAD_CAT_ID": 35153, "ELEMENT_SET_NO": 999, "REV_AT_EPOCH": 97191, "BSTAR": 0.00051843, "MEAN_MOTION_DOT": 4.214e-05, "MEAN_MOTION_DDOT": 0}, "tle": {"line1": "1 35153U 99025DMH 25344.95408661  .00004214  00000+0  51843-3 0  9993", "line2": "2 35153  98.9020 236.5834 0171271  88.7296 273.3523 14.73717090971918"}}, "geometry": {"type": "Point", "coordinates": [-119.66624911544127, -14.589250127320438]}}, {"type": "Feature", "properties": {"norad_id": 35154, "name": "FENGYUN 1C DEB", "group": "fengyun-1c-debris", "lat": 29.40787430133498, "lon": 102.31998267891213, "alt_km": 701.9215396274703, "timestamp": "2025-12-12T05:47:29.058644+00:00", "meta": {"OBJECT_NAME": "FENGYUN 1C DEB", "OBJECT_ID": "1999-025DMJ", "EPOCH": "2025-12-11T14:25:27.188832", "MEAN_MOTION": 14.18895758, "ECCENTRICITY": 0.01793749, "INCLINATION": 99.4214, "RA_OF_ASC_NODE": 107.0097, "ARG_OF_PERICENTER": 45.6577, "MEAN_ANOMALY": 315.9139, "EPHEMERIS_TYPE": 0, "CLASSIFICATION_TYPE": "U", "NORAD_CAT_ID": 35154, "ELEMENT_SET_NO": 999, "REV_AT_EPOCH": 64561, "BSTAR": 0.00044304667, "MEAN_MOTION_DOT": 1.033e-05, "MEAN_MOTION_DDOT": 0}, "tle": {"line1": "1 35154U 99025DMJ 25345.60100913  .00001033  00000+0  44305-3 0  9997", "line2": "2 35154  99.4214 107.0097 0179374  45.6577 315.9139 14.18895758645617"}}, "geometry": {"type": "Point", "coordinates": [102.31998267891213, 29.40787430133498]}}, {"type": "Feature", "properties": {"norad_id": 35155, "name": "FENGYUN 1C DEB", "group": "fengyun-1c-debris", "lat": 29.16874110934885, "lon": -177.28182181429477, "alt_km": 822.1409598802984, "timestamp": "2025-12-12T05:47:29.058653+00:00", "meta": {"OBJECT_NAME": "FENGYUN 1C DEB", "OBJECT_ID": "1999-025DMK", "EPOCH": "2025-12-01T18:40:23.892384", "MEAN_MOTION": 14.19237116, "ECCENTRICITY": 0.00262936, "INCLINATION": 98.5005, "RA_OF_ASC_NODE": 347.8913, "ARG_OF_PERICENTER": 103.4458, "MEAN_ANOMALY": 256.9651, "EPHEMERIS_TYPE": 0, "CLASSIFICATION_TYPE": "U", "NORAD_CAT_ID": 35155, "ELEMENT_SET_NO": 999, "REV_AT_EPOCH": 72558, "BSTAR": 0.00064940785, "MEAN_MOTION_DOT": 1.325e-05, "MEAN_MOTION_DDOT": 0}, "tle": {"line1": "1 35155U 99025DMK 25335.77805431  .00001325  00000+0  64941-3 0  9994", "line2": "2 35155  98.5005 347.8913 0026293 103.4458 256.9651 14.19237116725586"}}, "geometry": {"type": "Point", "coordinates": [-177.28182181429477, 29.16874110934885]}}, {"type": "Feature", "properties": {"norad_id": 35156, "name": "FENGYUN 1C DEB", "group": "fengyun-1c-debris", "lat": -65.11166306723676, "lon": 133.28209542304907, "alt_km": 867.6942155570969, "timestamp": "2025-12-12T05:47:29.058664+00:00", "meta": {"OBJECT_NAME": "FENGYUN 1C DEB", "OBJECT_ID": "1999-025DML", "EPOCH": "2025-12-03T09:32:20.618304", "MEAN_MOTION": 14.10610073, "ECCENTRICITY": 0.0036093, "INCLINATION": 98.7501, "RA_OF_ASC_NODE": 324.0617, "ARG_OF_PERICENTER": 174.1914, "MEAN_ANOMALY": 185.9683, "EPHEMERIS_TYPE": 0, "CLASSIFICATION_TYPE": "U", "NORAD_CAT_ID": 35156, "ELEMENT_SET_NO": 999, "REV_AT_EPOCH": 63912, "BSTAR": 0.00049263017, "MEAN_MOTION_DOT": 8.41e-06, "MEAN_MOTION_DDOT": 0}, "tle": {"line1": "1 35156U 99025DML 25337.39746086  .00000841  00000+0  49263-3 0  9997", "line2": "2 35156  98.7501 324.0617 0036093 174.1914 185.9683 14.10610073639127"}}, "geometry": {"type": "Point", "coordinates": [133.28209542304907, -65.11166306723676]}}]}